{"type": "FeatureCollection", "features": [ {"type": "Feature", "properties": {"norad_id": 59598, "name": "GSAT0225 (GALILEO 29)", "group": "gnss", "lat": -15.423430586247791, "lon": -62.5783604359252, "alt_km": 23218.708053865823, "timestamp": "2025-12-12T14:39:18.186300+00:00", "meta": {"OBJECT_NAME": "GSAT0225 (GALILEO 29)", "OBJECT_ID": "2024-079A", "EPOCH": "2025-12-10T12:47:07.958400", "MEAN_MOTION": 1.70474727, "ECCENTRICITY": 0.00020453, "INCLINATION": 55.0006, "RA_OF_ASC_NODE": 106.3566, "ARG_OF_PERICENTER": 176.2356, "MEAN_ANOMALY": 187.363, "EPHEMERIS_TYPE": 0, "CLASSIFICATION_TYPE": "U", "NORAD_CAT_ID": 59598, "ELEMENT_SET_NO": 999, "REV_AT_EPOCH": 1010, "BSTAR": 0, "MEAN_MOTION_DOT": 1e-07, "MEAN_MOTION_DDOT": 0}, "tle": {"line1": "1 59598U 24079A   25344.53273100  .00000010  00000+0  00000+0 0  9996", "line2": "2 59598  55.0006 106.3566 0002045 176.2356 187.3630  1.70474727 10101"}}, "geometry": {"type": "Point", "coordinates": [-62.5783604359252, -15.423430586247791]}}, {"type": "Feature", "properties": {"norad_id": 59600, "name": "GSAT0227 (GALILEO 30)", "group": "gnss", "lat": 54.83798607450812, "lon": -170.0511698436106, "alt_km": 23207.219775304417, "timestamp": "2025-12-12T14:39:18.186310+00:00", "meta": {"OBJECT_NAME": "GSAT0227 (GALILEO 30)", "OBJECT_ID": "2024-079C", "EPOCH": "2025-12-08T22:48:42.234912", "MEAN_MOTION": 1.70474719, "ECCENTRICITY": 0.0003262, "INCLINATION": 54.9946, "RA_OF_ASC_NODE": 106.4003, "ARG_OF_PERICENTER": 114.182, "MEAN_ANOMALY": 245.816, "EPHEMERIS_TYPE": 0, "CLASSIFICATION_TYPE": "U", "NORAD_CAT_ID": 59600, "ELEMENT_SET_NO": 999, "REV_AT_EPOCH": 1012, "BSTAR": 0, "MEAN_MOTION_DOT": 9e-08, "MEAN_MOTION_DDOT": 0}, "tle": {"line1": "1 59600U 24079C   25342.95048883  .00000009  00000+0  00000+0 0  9990", "line2": "2 59600  54.9946 106.4003 0003262 114.1820 245.8160  1.70474719 10123"}}, "geometry": {"type": "Point", "coordinates": [-170.0511698436106, 54.83798607450812]}}, {"type": "Feature", "properties": {"norad_id": 61182, "name": "GSAT0232 (GALILEO 32)", "group": "gnss", "lat": -53.80672144388942, "lon": 154.97453366756935, "alt_km": 23225.94090328252, "timestamp": "2025-12-12T14:39:18.186320+00:00", "meta": {"OBJECT_NAME": "GSAT0232 (GALILEO 32)", "OBJECT_ID": "2024-167A", "EPOCH": "2025-12-11T07:24:23.319072", "MEAN_MOTION": 1.70473458, "ECCENTRICITY": 0.0001976, "INCLINATION": 55.2412, "RA_OF_ASC_NODE": 226.4699, "ARG_OF_PERICENTER": 212.0591, "MEAN_ANOMALY": 349.7178, "EPHEMERIS_TYPE": 0, "CLASSIFICATION_TYPE": "U", "NORAD_CAT_ID": 61182, "ELEMENT_SET_NO": 999, "REV_AT_EPOCH": 767, "BSTAR": 0, "MEAN_MOTION_DOT": 1.1e-07, "MEAN_MOTION_DDOT": 0}, "tle": {"line1": "1 61182U 24167A   25345.30860323  .00000011  00000+0  00000+0 0  9992", "line2": "2 61182  55.2412 226.4699 0001976 212.0591 349.7178  1.70473458  7678"}}, "geometry": {"type": "Point", "coordinates": [154.97453366756935, -53.80672144388942]}}, {"type": "Feature", "properties": {"norad_id": 61183, "name": "GSAT0226 (GALILEO 31)", "group": "gnss", "lat": 26.913568897931583, "lon": -112.93181657128352, "alt_km": 23218.770215570596, "timestamp": "2025-12-12T14:39:18.186330+00:00", "meta": {"OBJECT_NAME": "GSAT0226 (GALILEO 31)", "OBJECT_ID": "2024-167B", "EPOCH": "2025-12-09T21:57:08.318304", "MEAN_MOTION": 1.70473488, "ECCENTRICITY": 8.079e-05, "INCLINATION": 55.2402, "RA_OF_ASC_NODE": 226.5136, "ARG_OF_PERICENTER": 118.4795, "MEAN_ANOMALY": 60.4734, "EPHEMERIS_TYPE": 0, "CLASSIFICATION_TYPE": "U", "NORAD_CAT_ID": 61183, "ELEMENT_SET_NO": 999, "REV_AT_EPOCH": 762, "BSTAR": 0, "MEAN_MOTION_DOT": 1e-07, "MEAN_MOTION_DDOT": 0}, "tle": {"line1": "1 61183U 24167B   25343.91467961  .00000010  00000+0  00000+0 0  9998", "line2": "2 61183  55.2402 226.5136 0000807 118.4795  60.4734  1.70473488  7625"}}, "geometry": {"type": "Point", "coordinates": [-112.93181657128352, 26.913568897931583]}}, {"type": "Feature", "properties": {"norad_id": 61186, "name": "BEIDOU-3 M25 (C47)", "group": "gnss", "lat": 6.783153373567222, "lon": -46.452193115735895, "alt_km": 21522.858022022738, "timestamp": "2025-12-12T14:39:18.186340+00:00", "meta": {"OBJECT_NAME": "BEIDOU-3 M25 (C47)", "OBJECT_ID": "2024-168B", "EPOCH": "2025-12-09T12:38:32.089056", "MEAN_MOTION": 1.86229941, "ECCENTRICITY": 0.0005432, "INCLINATION": 54.6447, "RA_OF_ASC_NODE": 308.8306, "ARG_OF_PERICENTER": 296.174, "MEAN_ANOMALY": 164.5169, "EPHEMERIS_TYPE": 0, "CLASSIFICATION_TYPE": "U", "NORAD_CAT_ID": 61186, "ELEMENT_SET_NO": 999, "REV_AT_EPOCH": 825, "BSTAR": 0, "MEAN_MOTION_DOT": -7.8e-07, "MEAN_MOTION_DDOT": 0}, "tle": {"line1": "1 61186U 24168B   25343.52676029 -.00000078  00000+0  00000+0 0  9991", "line2": "2 61186  54.6447 308.8306 0005432 296.1740 164.5169  1.86229941  8254"}}, "geometry": {"type": "Point", "coordinates": [-46.452193115735895, 6.783153373567222]}}, {"type": "Feature", "properties": {"norad_id": 61187, "name": "BEIDOU-3 M27 (C49)", "group": "gnss", "lat": 29.195853417618334, "lon": 105.32613819390853, "alt_km": 21531.01531017682, "timestamp": "2025-12-12T14:39:18.186350+00:00", "meta": {"OBJECT_NAME": "BEIDOU-3 M27 (C49)", "OBJECT_ID": "2024-168C", "EPOCH": "2025-12-12T03:14:00.933792", "MEAN_MOTION": 1.86230278, "ECCENTRICITY": 0.00023762, "INCLINATION": 54.6378, "RA_OF_ASC_NODE": 308.7239, "ARG_OF_PERICENTER": 336.4923, "MEAN_ANOMALY": 207.6472, "EPHEMERIS_TYPE": 0, "CLASSIFICATION_TYPE": "U", "NORAD_CAT_ID": 61187, "ELEMENT_SET_NO": 999, "REV_AT_EPOCH": 577, "BSTAR": 0, "MEAN_MOTION_DOT": -9.1e-07, "MEAN_MOTION_DDOT": 0}, "tle": {"line1": "1 61187U 24168C   25346.13473303 -.00000091  00000+0  00000+0 0  9997", "line2": "2 61187  54.6378 308.7239 0002376 336.4923 207.6472  1.86230278  5772"}}, "geometry": {"type": "Point", "coordinates": [105.32613819390853, 29.195853417618334]}}, {"type": "Feature", "properties": {"norad_id": 62339, "name": "GPS BIII-7  (PRN 01)", "group": "gnss", "lat": 10.279645098787661, "lon": 154.42068301130263, "alt_km": 20212.897563677045, "timestamp": "2025-12-12T14:39:18.186362+00:00", "meta": {"OBJECT_NAME": "GPS BIII-7  (PRN 01)", "OBJECT_ID": "2024-242A", "EPOCH": "2025-12-10T14:03:42.090048", "MEAN_MOTION": 2.00567746, "ECCENTRICITY": 0.0012131, "INCLINATION": 54.9242, "RA_OF_ASC_NODE": 341.8267, "ARG_OF_PERICENTER": 344.331, "MEAN_ANOMALY": 161.0631, "EPHEMERIS_TYPE": 0, "CLASSIFICATION_TYPE": "U", "NORAD_CAT_ID": 62339, "ELEMENT_SET_NO": 999, "REV_AT_EPOCH": 747, "BSTAR": 0, "MEAN_MOTION_DOT": -9e-07, "MEAN_MOTION_DDOT": 0}, "tle": {"line1": "1 62339U 24242A   25344.58590382 -.00000090  00000+0  00000+0 0  9993", "line2": "2 62339  54.9242 341.8267 0012131 344.3310 161.0631  2.00567746  7471"}}, "geometry": {"type": "Point", "coordinates": [154.42068301130263, 10.279645098787661]}}, {"type": "Feature", "properties": {"norad_id": 62850, "name": "NVS-02 (IRNSS-1K)", "group": "gnss", "lat": 6.2944118300930345, "lon": 130.97986831607295, "alt_km": 18189.711804580063, "timestamp": "2025-12-12T14:39:18.186372+00:00", "meta": {"OBJECT_NAME": "NVS-02 (IRNSS-1K)", "OBJECT_ID": "2025-020A", "EPOCH": "2025-12-12T02:07:34.106016", "MEAN_MOTION": 2.17593522, "ECCENTRICITY": 0.73478965, "INCLINATION": 20.9848, "RA_OF_ASC_NODE": 327.8954, "ARG_OF_PERICENTER": 25.8103, "MEAN_ANOMALY": 357.2743, "EPHEMERIS_TYPE": 0, "CLASSIFICATION_TYPE": "U", "NORAD_CAT_ID": 62850, "ELEMENT_SET_NO": 999, "REV_AT_EPOCH": 690, "BSTAR": 0.00034083233, "MEAN_MOTION_DOT": 3.05e-06, "MEAN_MOTION_DDOT": 0}, "tle": {"line1": "1 62850U 25020A   25346.08858919  .00000305  00000+0  34083-3 0  9996", "line2": "2 62850  20.9848 327.8954 7347896  25.8103 357.2743  2.17593522  6907"}}, "geometry": {"type": "Point", "coordinates": [130.97986831607295, 6.2944118300930345]}}, {"type": "Feature", "properties": {"norad_id": 62876, "name": "QZS-6 (QZSS/PRN 200)", "group": "gnss", "lat": 0.003150373333425932, "lon": 31.882704351289046, "alt_km": 35789.27669287825, "timestamp": "2025-12-12T14:39:18.186384+00:00", "meta": {"OBJECT_NAME": "QZS-6 (QZSS/PRN 200)", "OBJECT_ID": "2025-023A", "EPOCH": "2025-12-12T01:55:38.440992", "MEAN_MOTION": 1.00274711, "ECCENTRICITY": 0.0001723, "INCLINATION": 0.0297, "RA_OF_ASC_NODE": 51.9956, "ARG_OF_PERICENTER": 216.9775, "MEAN_ANOMALY": 291.4551, "EPHEMERIS_TYPE": 0, "CLASSIFICATION_TYPE": "U", "NORAD_CAT_ID": 62876, "ELEMENT_SET_NO": 999, "REV_AT_EPOCH": 308, "BSTAR": 0, "MEAN_MOTION_DOT": -2.24e-06, "MEAN_MOTION_DDOT": 0}, "tle": {"line1": "1 62876U 25023A   25346.08030603 -.00000224  00000+0  00000+0 0  9998", "line2": "2 62876   0.0297  51.9956 0001723 216.9775 291.4551  1.00274711  3085"}}, "geometry": {"type": "Point", "coordinates": [31.882704351289046, 0.003150373333425932]}}, {"type": "Feature", "properties": {"norad_id": 63130, "name": "COSMOS 2584 (704K)", "group": "gnss", "lat": -0.13636891400861811, "lon": -100.78176847919435, "alt_km": 19114.64659892027, "timestamp": "2025-12-12T14:39:18.186396+00:00", "meta": {"OBJECT_NAME": "COSMOS 2584 (704K)", "OBJECT_ID": "2025-042A", "EPOCH": "2025-12-08T03:39:29.178720", "MEAN_MOTION": 2.13102925, "ECCENTRICITY": 0.0007602, "INCLINATION": 64.9737, "RA_OF_ASC_NODE": 79.3022, "ARG_OF_PERICENTER": 215.9611, "MEAN_ANOMALY": 144.0025, "EPHEMERIS_TYPE": 0, "CLASSIFICATION_TYPE": "U", "NORAD_CAT_ID": 63130, "ELEMENT_SET_NO": 999, "REV_AT_EPOCH": 597, "BSTAR": 0, "MEAN_MOTION_DOT": -1.2e-07, "MEAN_MOTION_DDOT": 0}, "tle": {"line1": "1 63130U 25042A   25342.15242105 -.00000012  00000+0  00000+0 0  9994", "line2": "2 63130  64.9737  79.3022 0007602 215.9611 144.0025  2.13102925  5976"}}, "geometry": {"type": "Point", "coordinates": [-100.78176847919435, -0.13636891400861811]}}]}